CCSDS_OMM_VERS = 2.0
CREATION_DATE  = 
ORIGINATOR     = 

OBJECT_NAME    = CSG-3
OBJECT_ID      = 2026-001A
CENTER_NAME    = EARTH
REF_FRAME      = TEME
TIME_SYSTEM    = UTC
MEAN_ELEMENT_THEORY = SGP/SGP4

EPOCH          = 2026-01-30T13:05:09.508416
MEAN_MOTION    = 14.82516808
ECCENTRICITY   = .0001415
INCLINATION    = 97.8681
RA_OF_ASC_NODE = 216.1447
ARG_OF_PERICENTER = 73.7776
MEAN_ANOMALY   = 286.3593

EPHEMERIS_TYPE = 0
CLASSIFICATION_TYPE = U
NORAD_CAT_ID   = 67304
ELEMENT_SET_NO = 999
REV_AT_EPOCH   = 407
BSTAR          = -.66981E-3
MEAN_MOTION_DOT = -.5426E-4
MEAN_MOTION_DDOT = 0

CCSDS_OMM_VERS = 2.0
CREATION_DATE  = 
ORIGINATOR     = 

OBJECT_NAME    = STARLINK-36490
OBJECT_ID      = 2026-002A
CENTER_NAME    = EARTH
REF_FRAME      = TEME
TIME_SYSTEM    = UTC
MEAN_ELEMENT_THEORY = SGP/SGP4

EPOCH          = 2026-01-30T12:00:02.998944
MEAN_MOTION    = 15.50584547
ECCENTRICITY   = .0001855
INCLINATION    = 42.9992
RA_OF_ASC_NODE = 182.4266
ARG_OF_PERICENTER = 270.9678
MEAN_ANOMALY   = 2.3423

EPHEMERIS_TYPE = 0
CLASSIFICATION_TYPE = U
NORAD_CAT_ID   = 67305
ELEMENT_SET_NO = 999
REV_AT_EPOCH   = 533
BSTAR          = -.10362E-2
MEAN_MOTION_DOT = -.60673E-3
MEAN_MOTION_DDOT = 0

CCSDS_OMM_VERS = 2.0
CREATION_DATE  = 
ORIGINATOR     = 

OBJECT_NAME    = STARLINK-36488
OBJECT_ID      = 2026-002B
CENTER_NAME    = EARTH
REF_FRAME      = TEME
TIME_SYSTEM    = UTC
MEAN_ELEMENT_THEORY = SGP/SGP4

EPOCH          = 2026-01-30T12:00:02.998944
MEAN_MOTION    = 15.50593304
ECCENTRICITY   = .0001399
INCLINATION    = 42.9989
RA_OF_ASC_NODE = 182.4223
ARG_OF_PERICENTER = 275.1532
MEAN_ANOMALY   = 0.0725

EPHEMERIS_TYPE = 0
CLASSIFICATION_TYPE = U
NORAD_CAT_ID   = 67306
ELEMENT_SET_NO = 999
REV_AT_EPOCH   = 528
BSTAR          = -.12948E-2
MEAN_MOTION_DOT = -.75609E-3
MEAN_MOTION_DDOT = 0

CCSDS_OMM_VERS = 2.0
CREATION_DATE  = 
ORIGINATOR     = 

OBJECT_NAME    = STARLINK-36481
OBJECT_ID      = 2026-002C
CENTER_NAME    = EARTH
REF_FRAME      = TEME
TIME_SYSTEM    = UTC
MEAN_ELEMENT_THEORY = SGP/SGP4

EPOCH          = 2026-01-30T12:00:02.998944
MEAN_MOTION    = 15.50589513
ECCENTRICITY   = .000176
INCLINATION    = 42.9992
RA_OF_ASC_NODE = 182.4125
ARG_OF_PERICENTER = 275.0230
MEAN_ANOMALY   = 4.0348

EPHEMERIS_TYPE = 0
CLASSIFICATION_TYPE = U
NORAD_CAT_ID   = 67307
ELEMENT_SET_NO = 999
REV_AT_EPOCH   = 528
BSTAR          = -.11673E-2
MEAN_MOTION_DOT = -.68254E-3
MEAN_MOTION_DDOT = 0

CCSDS_OMM_VERS = 2.0
CREATION_DATE  = 
ORIGINATOR     = 

OBJECT_NAME    = STARLINK-36449
OBJECT_ID      = 2026-002D
CENTER_NAME    = EARTH
REF_FRAME      = TEME
TIME_SYSTEM    = UTC
MEAN_ELEMENT_THEORY = SGP/SGP4

EPOCH          = 2026-01-30T12:00:02.998944
MEAN_MOTION    = 15.50585201
ECCENTRICITY   = .0001747
INCLINATION    = 42.9991
RA_OF_ASC_NODE = 182.4074
ARG_OF_PERICENTER = 274.5736
MEAN_ANOMALY   = 6.3988

EPHEMERIS_TYPE = 0
CLASSIFICATION_TYPE = U
NORAD_CAT_ID   = 67308
ELEMENT_SET_NO = 999
REV_AT_EPOCH   = 533
BSTAR          = -.96536E-3
MEAN_MOTION_DOT = -.56581E-3
MEAN_MOTION_DDOT = 0

CCSDS_OMM_VERS = 2.0
CREATION_DATE  = 
ORIGINATOR     = 

OBJECT_NAME    = STARLINK-36482
OBJECT_ID      = 2026-002E
CENTER_NAME    = EARTH
REF_FRAME      = TEME
TIME_SYSTEM    = UTC
MEAN_ELEMENT_THEORY = SGP/SGP4

EPOCH          = 2026-01-30T12:00:02.998944
MEAN_MOTION    = 15.50661261
ECCENTRICITY   = .0001789
INCLINATION    = 42.9990
RA_OF_ASC_NODE = 182.3844
ARG_OF_PERICENTER = 270.3534
MEAN_ANOMALY   = 20.2326

EPHEMERIS_TYPE = 0
CLASSIFICATION_TYPE = U
NORAD_CAT_ID   = 67309
ELEMENT_SET_NO = 999
REV_AT_EPOCH   = 528
BSTAR          = -.40921E-2
MEAN_MOTION_DOT = -.23407E-2
MEAN_MOTION_DDOT = 0

CCSDS_OMM_VERS = 2.0
CREATION_DATE  = 
ORIGINATOR     = 

OBJECT_NAME    = STARLINK-36491
OBJECT_ID      = 2026-002F
CENTER_NAME    = EARTH
REF_FRAME      = TEME
TIME_SYSTEM    = UTC
MEAN_ELEMENT_THEORY = SGP/SGP4

EPOCH          = 2026-01-30T12:00:02.998944
MEAN_MOTION    = 15.50693896
ECCENTRICITY   = .0001406
INCLINATION    = 42.9990
RA_OF_ASC_NODE = 182.4182
ARG_OF_PERICENTER = 259.7724
MEAN_ANOMALY   = 17.3581

EPHEMERIS_TYPE = 0
CLASSIFICATION_TYPE = U
NORAD_CAT_ID   = 67310
ELEMENT_SET_NO = 999
REV_AT_EPOCH   = 528
BSTAR          = -.37037E-2
MEAN_MOTION_DOT = -.212694E-2
MEAN_MOTION_DDOT = 0

CCSDS_OMM_VERS = 2.0
CREATION_DATE  = 
ORIGINATOR     = 

OBJECT_NAME    = STARLINK-36495
OBJECT_ID      = 2026-002G
CENTER_NAME    = EARTH
REF_FRAME      = TEME
TIME_SYSTEM    = UTC
MEAN_ELEMENT_THEORY = SGP/SGP4

EPOCH          = 2026-01-30T12:00:02.998944
MEAN_MOTION    = 15.50576874
ECCENTRICITY   = .0001761
INCLINATION    = 42.9990
RA_OF_ASC_NODE = 182.4027
ARG_OF_PERICENTER = 275.5172
MEAN_ANOMALY   = 7.3719

EPHEMERIS_TYPE = 0
CLASSIFICATION_TYPE = U
NORAD_CAT_ID   = 67311
ELEMENT_SET_NO = 999
REV_AT_EPOCH   = 543
BSTAR          = -.66534E-3
MEAN_MOTION_DOT = -.39177E-3
MEAN_MOTION_DDOT = 0

CCSDS_OMM_VERS = 2.0
CREATION_DATE  = 
ORIGINATOR     = 

OBJECT_NAME    = STARLINK-36485
OBJECT_ID      = 2026-002H
CENTER_NAME    = EARTH
REF_FRAME      = TEME
TIME_SYSTEM    = UTC
MEAN_ELEMENT_THEORY = SGP/SGP4

EPOCH          = 2026-01-30T12:00:02.998944
MEAN_MOTION    = 15.50586714
ECCENTRICITY   = .000192
INCLINATION    = 42.9990
RA_OF_ASC_NODE = 182.3981
ARG_OF_PERICENTER = 273.7505
MEAN_ANOMALY   = 11.0597

EPHEMERIS_TYPE = 0
CLASSIFICATION_TYPE = U
NORAD_CAT_ID   = 67312
ELEMENT_SET_NO = 999
REV_AT_EPOCH   = 528
BSTAR          = -.1036E-2
MEAN_MOTION_DOT = -.6067E-3
MEAN_MOTION_DDOT = 0

CCSDS_OMM_VERS = 2.0
CREATION_DATE  = 
ORIGINATOR     = 

OBJECT_NAME    = STARLINK-36445
OBJECT_ID      = 2026-002J
CENTER_NAME    = EARTH
REF_FRAME      = TEME
TIME_SYSTEM    = UTC
MEAN_ELEMENT_THEORY = SGP/SGP4

EPOCH          = 2026-01-30T12:00:02.998944
MEAN_MOTION    = 15.50577552
ECCENTRICITY   = .0001556
INCLINATION    = 42.9991
RA_OF_ASC_NODE = 182.3928
ARG_OF_PERICENTER = 263.0378
MEAN_ANOMALY   = 23.6923

EPHEMERIS_TYPE = 0
CLASSIFICATION_TYPE = U
NORAD_CAT_ID   = 67313
ELEMENT_SET_NO = 999
REV_AT_EPOCH   = 543
BSTAR          = -.77044E-3
MEAN_MOTION_DOT = -.45277E-3
MEAN_MOTION_DDOT = 0

CCSDS_OMM_VERS = 2.0
CREATION_DATE  = 
ORIGINATOR     = 

OBJECT_NAME    = STARLINK-36476
OBJECT_ID      = 2026-002K
CENTER_NAME    = EARTH
REF_FRAME      = TEME
TIME_SYSTEM    = UTC
MEAN_ELEMENT_THEORY = SGP/SGP4

EPOCH          = 2026-01-30T12:00:02.998944
MEAN_MOTION    = 15.50576957
ECCENTRICITY   = .0001804
INCLINATION    = 42.9991
RA_OF_ASC_NODE = 182.3892
ARG_OF_PERICENTER = 278.7676
MEAN_ANOMALY   = 9.8693

EPHEMERIS_TYPE = 0
CLASSIFICATION_TYPE = U
NORAD_CAT_ID   = 67314
ELEMENT_SET_NO = 999
REV_AT_EPOCH   = 528
BSTAR          = -.63738E-3
MEAN_MOTION_DOT = -.37553E-3
MEAN_MOTION_DDOT = 0

CCSDS_OMM_VERS = 2.0
CREATION_DATE  = 
ORIGINATOR     = 

OBJECT_NAME    = STARLINK-36463
OBJECT_ID      = 2026-002L
CENTER_NAME    = EARTH
REF_FRAME      = TEME
TIME_SYSTEM    = UTC
MEAN_ELEMENT_THEORY = SGP/SGP4

EPOCH          = 2026-01-30T12:00:02.998944
MEAN_MOTION    = 15.50571048
ECCENTRICITY   = .000181
INCLINATION    = 42.9990
RA_OF_ASC_NODE = 182.3787
ARG_OF_PERICENTER = 274.8815
MEAN_ANOMALY   = 17.5968

EPHEMERIS_TYPE = 0
CLASSIFICATION_TYPE = U
NORAD_CAT_ID   = 67315
ELEMENT_SET_NO = 999
REV_AT_EPOCH   = 533
BSTAR          = -.56531E-3
MEAN_MOTION_DOT = -.33356E-3
MEAN_MOTION_DDOT = 0

