CSG-3                   
1 67304U 26001A   26030.54524894 -.00005426  00000+0 -66981-3 0  9992
2 67304  97.8681 216.1447 0001415  73.7776 286.3593 14.82516808  4074
STARLINK-36490          
1 67305U 26002A   26030.50003471 -.00060673  00000+0 -10362-2 0  9999
2 67305  42.9992 182.4266 0001855 270.9678   2.3423 15.50584547  5334
STARLINK-36488          
1 67306U 26002B   26030.50003471 -.00075609  00000+0 -12948-2 0  9997
2 67306  42.9989 182.4223 0001399 275.1532   0.0725 15.50593304  5288
STARLINK-36481          
1 67307U 26002C   26030.50003471 -.00068254  00000+0 -11673-2 0  9990
2 67307  42.9992 182.4125 0001760 275.0230   4.0348 15.50589513  5282
STARLINK-36449          
1 67308U 26002D   26030.50003471 -.00056581  00000+0 -96536-3 0  9993
2 67308  42.9991 182.4074 0001747 274.5736   6.3988 15.50585201  5336
STARLINK-36482          
1 67309U 26002E   26030.50003471 -.00234070  00000+0 -40921-2 0  9991
2 67309  42.9990 182.3844 0001789 270.3534  20.2326 15.50661261  5282
STARLINK-36491          
1 67310U 26002F   26030.50003471 -.00212694  00000+0 -37037-2 0  9995
2 67310  42.9990 182.4182 0001406 259.7724  17.3581 15.50693896  5287
STARLINK-36495          
1 67311U 26002G   26030.50003471 -.00039177  00000+0 -66534-3 0  9994
2 67311  42.9990 182.4027 0001761 275.5172   7.3719 15.50576874  5438
STARLINK-36485          
1 67312U 26002H   26030.50003471 -.00060670  00000+0 -10360-2 0  9992
2 67312  42.9990 182.3981 0001920 273.7505  11.0597 15.50586714  5287
STARLINK-36445          
1 67313U 26002J   26030.50003471 -.00045277  00000+0 -77044-3 0  9992
2 67313  42.9991 182.3928 0001556 263.0378  23.6923 15.50577552  5434
STARLINK-36476          
1 67314U 26002K   26030.50003471 -.00037553  00000+0 -63738-3 0  9996
2 67314  42.9991 182.3892 0001804 278.7676   9.8693 15.50576957  5286
STARLINK-36463          
1 67315U 26002L   26030.50003471 -.00033356  00000+0 -56531-3 0  9997
2 67315  42.9990 182.3787 0001810 274.8815  17.5968 15.50571048  5331
